OBJECT_NAME,OBJECT_ID,EPOCH,MEAN_MOTION,ECCENTRICITY,INCLINATION,RA_OF_ASC_NODE,ARG_OF_PERICENTER,MEAN_ANOMALY,EPHEMERIS_TYPE,CLASSIFICATION_TYPE,NORAD_CAT_ID,ELEMENT_SET_NO,REV_AT_EPOCH,BSTAR,MEAN_MOTION_DOT,MEAN_MOTION_DDOT
SITRO-AIS 8 (ANOKHIN),2023-091AD,2026-07-17T21:43:56.027712,15.32899830,.0009224,97.5035,264.8255,358.0830,2.0375,0,U,57193,999,16915,.22870279E-3,.7195E-4,0
SITRO-AIS 7 (FARTUSHNIY),2023-091AE,2026-07-17T22:31:32.474784,15.26139707,.00108482,97.5044,261.9041,8.2854,351.8561,0,U,57194,999,16896,.20238219E-3,.5158E-4,0
AVION KALUGA 650,2023-091AF,2026-07-17T23:03:43.144992,15.20648289,.00101588,97.5069,258.4160,13.0482,347.1014,0,U,57195,999,16870,.13207502E-3,.2831E-4,0
HORS 2,2023-091AG,2026-07-17T22:08:39.277248,15.32601899,.00065531,97.5068,266.3848,344.6570,15.4472,0,U,57196,999,16923,.23249708E-3,.7243E-4,0
A-SEANSAT-PG1,2023-091AH,2026-07-17T22:13:16.082976,15.37940881,.00054065,97.5060,269.1834,337.9005,22.2005,0,U,57197,999,16943,.28321873E-3,.10489E-3,0
SITRO-AIS 10 (BURDAEV),2023-091AK,2026-07-17T22:25:55.574400,15.39690277,.00046391,97.5062,270.2346,329.0440,31.0531,0,U,57199,999,16949,.29238553E-3,.11469E-3,0
SITRO-AIS 9 (SHCHUKIN),2023-091AM,2026-07-17T21:44:48.035328,15.39173225,.00049151,97.5061,269.9105,329.8372,30.2590,0,U,57201,999,16947,.27772791E-3,.10705E-3,0
UTMN 2 (RS27S),2023-091AP,2026-07-17T22:43:32.915136,15.32740210,.00064656,97.5068,266.6073,339.4894,20.6087,0,U,57203,999,16925,.22401832E-3,.7006E-4,0
SITRO-AIS 12 (SMIRENNIY),2023-091AQ,2026-07-17T22:56:27.744288,15.39468934,.00044697,97.5073,270.4482,321.5661,38.5265,0,U,57204,999,16950,.2759059E-3,.10738E-3,0
SITRO-AIS 11 (SHEFFER),2023-091AU,2026-07-17T23:03:15.788160,15.39915306,.00044101,97.5071,270.7194,320.9764,39.1163,0,U,57208,999,16952,.28949708E-3,.11439E-3,0
H2SAT (HEINRICH HERTZ),2023-093A,2026-07-17T09:51:13.959936,1.00271511,.0000091,0.0264,100.9600,319.8743,22.8857,0,U,57213,999,1121,0,-.8E-7,0
KUZGTU 1 (RS47S),2023-091AV,2026-07-17T23:09:23.608512,15.30506262,.00097948,97.5043,263.7702,356.1414,3.9750,0,U,57217,999,16908,.21651762E-3,.6316E-4,0
QIANKUN-1,2023-103B,2026-07-16T14:42:06.791040,16.07858994,.0035589,96.1400,240.3808,130.8922,229.5456,0,U,57422,999,17202,.75371E-5,.6165E-4,.16552E-5
FENGYUN 3F,2023-111A,2026-07-17T23:29:36.148704,14.19943680,.00012205,98.6823,268.4118,75.7138,284.4174,0,U,57490,999,15323,.20471084E-4,0,0
HJ-2F,2023-116A,2026-07-17T22:40:16.915008,15.22716851,.0006432,97.3850,203.6370,300.5667,59.4934,0,U,57519,999,16343,.17403392E-3,.399E-4,0
XRISM,2023-137A,2026-07-17T22:36:06.795648,15.12681596,.00078647,31.0010,160.3465,273.4693,86.5046,0,U,57800,999,15752,.12646878E-3,.2367E-4,0
METEOR-M2 4,2024-039A,2026-07-17T23:50:12.816096,14.22432332,.00082525,98.7027,157.9070,81.8623,278.3491,0,U,59051,999,12364,.16501506E-4,-.7E-7,0
GRBBETA,2024-128C,2026-07-17T21:07:35.153472,15.06818842,.00367448,61.9888,108.5638,141.2952,219.0784,0,U,60237,999,11089,.127828E-3,.172E-4,0
TRANSPORTER-11 OBJECT A,2024-149A,2026-07-17T02:40:17.726592,15.33357294,.0004945,97.3725,277.9559,111.8968,248.2800,0,U,60468,999,10664,.14192E-3,.4496E-4,0
WARATAH SEED-1,2024-149B,2026-07-17T18:55:35.904000,15.36657294,.00032853,97.3679,279.4061,115.8382,244.3201,0,U,60469,999,10681,.20012106E-3,.7083E-4,0
PHISAT 2,2024-149C,2026-07-17T22:57:43.251840,15.31456871,.000329,97.3747,278.0086,118.3375,241.8199,0,U,60470,999,10670,.2046344E-3,.6139E-4,0
LEMUR-2-TOMATOKECHUP,2024-149D,2026-07-17T18:49:37.650720,15.36614025,.00033934,97.3792,280.9209,117.3320,242.8270,0,U,60471,999,10686,.16234928E-3,.5722E-4,0
CONNECTA IOT-1,2024-149E,2026-07-17T04:11:16.498464,15.23750716,.00029496,97.3749,273.9619,138.1796,221.9667,0,U,60472,999,10636,.8987796E-4,.209E-4,0
LOPEN,2024-149F,2026-07-17T11:20:19.972032,15.40504380,.0002928,97.3772,282.0938,130.0839,230.0664,0,U,60473,999,10692,.2101E-3,.8438E-4,0
ROCK,2024-149G,2026-07-16T17:52:20.568000,15.40480155,.00032121,97.3770,281.3732,129.2822,230.8709,0,U,60474,999,10681,.22697877E-3,.9117E-4,0
CONNECTA IOT-3,2024-149H,2026-07-17T10:59:56.979168,15.23765548,.0004118,97.3723,273.9847,137.7899,222.3656,0,U,60475,999,10641,.91149E-4,.2122E-4,0
QUBE,2024-149J,2026-07-17T19:33:50.585184,15.48583375,.00033551,97.3771,285.8698,124.4796,235.6772,0,U,60476,999,10720,.27139775E-3,.14389E-3,0
WREN-1,2024-149L,2026-07-16T18:54:35.197632,15.42666517,.00054342,97.3763,282.2343,146.0317,214.1279,0,U,60478,999,10688,.29337218E-3,.1271E-3,0
TOMORROW-S1,2024-149M,2026-07-16T18:31:54.494400,15.33106176,.00041368,97.3744,278.1578,127.5691,232.5928,0,U,60479,999,10662,.13256178E-3,.4161E-4,0
