SITRO-AIS 8 (ANOKHIN)   
1 57193U 23091AD  26198.90550958  .00007195  00000+0  22870-3 0  9990
2 57193  97.5035 264.8255 0009224 358.0830   2.0375 15.32899830169159
SITRO-AIS 7 (FARTUSHNIY)
1 57194U 23091AE  26198.93857031  .00005158  00000+0  20238-3 0  9999
2 57194  97.5044 261.9041 0010848   8.2854 351.8561 15.26139707168968
AVION KALUGA 650        
1 57195U 23091AF  26198.96091603  .00002831  00000+0  13208-3 0  9992
2 57195  97.5069 258.4160 0010158  13.0482 347.1014 15.20648289168701
HORS 2                  
1 57196U 23091AG  26198.92267682  .00007243  00000+0  23250-3 0  9991
2 57196  97.5068 266.3848 0006553 344.6570  15.4472 15.32601899169238
A-SEANSAT-PG1           
1 57197U 23091AH  26198.92588059  .00010489  00000+0  28322-3 0  9997
2 57197  97.5060 269.1834 0005406 337.9005  22.2005 15.37940881169433
SITRO-AIS 10 (BURDAEV)  
1 57199U 23091AK  26198.93467100  .00011469  00000+0  29239-3 0  9990
2 57199  97.5062 270.2346 0004639 329.0440  31.0531 15.39690277169491
SITRO-AIS 9 (SHCHUKIN)  
1 57201U 23091AM  26198.90611152  .00010705  00000+0  27773-3 0  9992
2 57201  97.5061 269.9105 0004915 329.8372  30.2590 15.39173225169474
UTMN 2 (RS27S)          
1 57203U 23091AP  26198.94690874  .00007006  00000+0  22402-3 0  9990
2 57203  97.5068 266.6073 0006465 339.4894  20.6087 15.32740210169256
SITRO-AIS 12 (SMIRENNIY)
1 57204U 23091AQ  26198.95587667  .00010738  00000+0  27591-3 0  9997
2 57204  97.5073 270.4482 0004469 321.5661  38.5265 15.39468934169507
SITRO-AIS 11 (SHEFFER)  
1 57208U 23091AU  26198.96059940  .00011439  00000+0  28950-3 0  9999
2 57208  97.5071 270.7194 0004410 320.9764  39.1163 15.39915306169521
H2SAT (HEINRICH HERTZ)  
1 57213U 23093A   26198.41057824 -.00000008  00000+0  00000+0 0  9999
2 57213   0.0264 100.9600 0000091 319.8743  22.8857  1.00271511 11218
KUZGTU 1 (RS47S)        
1 57217U 23091AV  26198.96485658  .00006316  00000+0  21652-3 0  9998
2 57217  97.5043 263.7702 0009794 356.1414   3.9750 15.30506262169080
QIANKUN-1               
1 57422U 23103B   26197.61257860  .00006165  16552-5  75371-5 0  9999
2 57422  96.1400 240.3808 0035589 130.8922 229.5456 16.07858994172024
FENGYUN 3F              
1 57490U 23111A   26198.97889061  .00000000  00000+0  20471-4 0  9994
2 57490  98.6823 268.4118 0001220  75.7138 284.4174 14.19943680153238
HJ-2F                   
1 57519U 23116A   26198.94464022  .00003990  00000+0  17403-3 0  9995
2 57519  97.3850 203.6370 0006432 300.5667  59.4934 15.22716851163433
XRISM                   
1 57800U 23137A   26198.94174532  .00002367  00000+0  12647-3 0  9997
2 57800  31.0010 160.3465 0007864 273.4693  86.5046 15.12681596157524
METEOR-M2 4             
1 59051U 24039A   26198.99320389 -.00000007  00000+0  16502-4 0  9992
2 59051  98.7027 157.9070 0008252  81.8623 278.3491 14.22432332123645
GRBBETA                 
1 60237U 24128C   26198.88026798  .00001720  00000+0  12783-3 0  9992
2 60237  61.9888 108.5638 0036744 141.2952 219.0784 15.06818842110892
TRANSPORTER-11 OBJECT A 
1 60468U 24149A   26198.11131628  .00004496  00000+0  14192-3 0  9995
2 60468  97.3725 277.9559 0004945 111.8968 248.2800 15.33357294106642
WARATAH SEED-1          
1 60469U 24149B   26198.78861000  .00007083  00000+0  20012-3 0  9996
2 60469  97.3679 279.4061 0003285 115.8382 244.3201 15.36657294106813
PHISAT 2                
1 60470U 24149C   26198.95675060  .00006139  00000+0  20463-3 0  9997
2 60470  97.3747 278.0086 0003290 118.3375 241.8199 15.31456871106708
LEMUR-2-TOMATOKECHUP    
1 60471U 24149D   26198.78446355  .00005722  00000+0  16235-3 0  9991
2 60471  97.3792 280.9209 0003393 117.3320 242.8270 15.36614025106861
CONNECTA IOT-1          
1 60472U 24149E   26198.17449651  .00002090  00000+0  89878-4 0  9996
2 60472  97.3749 273.9619 0002949 138.1796 221.9667 15.23750716106362
LOPEN                   
1 60473U 24149F   26198.47245338  .00008438  00000+0  21010-3 0  9991
2 60473  97.3772 282.0938 0002928 130.0839 230.0664 15.40504380106923
ROCK                    
1 60474U 24149G   26197.74468250  .00009117  00000+0  22698-3 0  9999
2 60474  97.3770 281.3732 0003212 129.2822 230.8709 15.40480155106814
CONNECTA IOT-3          
1 60475U 24149H   26198.45829837  .00002122  00000+0  91149-4 0  9998
2 60475  97.3723 273.9847 0004118 137.7899 222.3656 15.23765548106417
QUBE                    
1 60476U 24149J   26198.81516881  .00014389  00000+0  27140-3 0  9998
2 60476  97.3771 285.8698 0003355 124.4796 235.6772 15.48583375107205
WREN-1                  
1 60478U 24149L   26197.78790738  .00012710  00000+0  29337-3 0  9996
2 60478  97.3763 282.2343 0005434 146.0317 214.1279 15.42666517106886
TOMORROW-S1             
1 60479U 24149M   26197.77215850  .00004161  00000+0  13256-3 0  9997
2 60479  97.3744 278.1578 0004136 127.5691 232.5928 15.33106176106624
